[{"OBJECT_NAME":"STARLINK-6282","OBJECT_ID":"2023-061AK","EPOCH":"2026-03-08T16:41:52.640160","MEAN_MOTION":15.02535676,"ECCENTRICITY":0.00011794,"INCLINATION":43.0029,"RA_OF_ASC_NODE":189.9984,"ARG_OF_PERICENTER":268.4927,"MEAN_ANOMALY":91.5781,"EPHEMERIS_TYPE":0,"CLASSIFICATION_TYPE":"U","NORAD_CAT_ID":56407,"ELEMENT_SET_NO":999,"REV_AT_EPOCH":15675,"BSTAR":-1.7852895e-5,"MEAN_MOTION_DOT":-4.45e-6,"MEAN_MOTION_DDOT":0},{"OBJECT_NAME":"CZ-6A DEB","OBJECT_ID":"2024-140NJ","EPOCH":"2026-03-09T15:30:01.982592","MEAN_MOTION":15.1004937,"ECCENTRICITY":0.00567225,"INCLINATION":88.9288,"RA_OF_ASC_NODE":275.3548,"ARG_OF_PERICENTER":176.1403,"MEAN_ANOMALY":184.0287,"EPHEMERIS_TYPE":0,"CLASSIFICATION_TYPE":"U","NORAD_CAT_ID":61092,"ELEMENT_SET_NO":999,"REV_AT_EPOCH":8278,"BSTAR":0.0051635532,"MEAN_MOTION_DOT":0.00088127,"MEAN_MOTION_DDOT":0}]
